[{"OBJECT_NAME":"ONEWEB-0142","OBJECT_ID":"2020-100AG","EPOCH":"2025-08-19T22:37:52.122432","MEAN_MOTION":13.12444762,"ECCENTRICITY":0.0001544,"INCLINATION":87.8867,"RA_OF_ASC_NODE":50.5346,"ARG_OF_PERICENTER":102.1599,"MEAN_ANOMALY":257.9702,"EPHEMERIS_TYPE":0,"CLASSIFICATION_TYPE":"U","NORAD_CAT_ID":47288,"ELEMENT_SET_NO":999,"REV_AT_EPOCH":22515,"BSTAR":0.0011202,"MEAN_MOTION_DOT":4.16e-6,"MEAN_MOTION_DDOT":0},{"OBJECT_NAME":"ONEWEB-0143","OBJECT_ID":"2020-100AH","EPOCH":"2025-08-20T06:10:48.775008","MEAN_MOTION":13.12443092,"ECCENTRICITY":0.0001766,"INCLINATION":87.8866,"RA_OF_ASC_NODE":50.4692,"ARG_OF_PERICENTER":89.6697,"MEAN_ANOMALY":270.4634,"EPHEMERIS_TYPE":0,"CLASSIFICATION_TYPE":"U","NORAD_CAT_ID":47289,"ELEMENT_SET_NO":999,"REV_AT_EPOCH":22517,"BSTAR":0.0010972,"MEAN_MOTION_DOT":4.07e-6,"MEAN_MOTION_DDOT":0},{"OBJECT_NAME":"ONEWEB-0144","OBJECT_ID":"2020-100AJ","EPOCH":"2025-08-20T05:31:05.849184","MEAN_MOTION":13.12443966,"ECCENTRICITY":0.0001483,"INCLINATION":87.8857,"RA_OF_ASC_NODE":50.4523,"ARG_OF_PERICENTER":94.4711,"MEAN_ANOMALY":265.6587,"EPHEMERIS_TYPE":0,"CLASSIFICATION_TYPE":"U","NORAD_CAT_ID":47290,"ELEMENT_SET_NO":999,"REV_AT_EPOCH":22509,"BSTAR":-0.00062335,"MEAN_MOTION_DOT":-2.12e-6,"MEAN_MOTION_DDOT":0},{"OBJECT_NAME":"ONEWEB-0145","OBJECT_ID":"2020-100AK","EPOCH":"2025-08-20T04:49:03.228384","MEAN_MOTION":13.12440661,"ECCENTRICITY":0.000164,"INCLINATION":87.8866,"RA_OF_ASC_NODE":50.4871,"ARG_OF_PERICENTER":90.4377,"MEAN_ANOMALY":269.694,"EPHEMERIS_TYPE":0,"CLASSIFICATION_TYPE":"U","NORAD_CAT_ID":47291,"ELEMENT_SET_NO":999,"REV_AT_EPOCH":22528,"BSTAR":-0.00017021,"MEAN_MOTION_DOT":-4.9e-7,"MEAN_MOTION_DDOT":0},{"OBJECT_NAME":"ONEWEB-0146","OBJECT_ID":"2020-100AL","EPOCH":"2025-08-20T04:44:23.187840","MEAN_MOTION":13.12440146,"ECCENTRICITY":0.0002096,"INCLINATION":87.8866,"RA_OF_ASC_NODE":50.4746,"ARG_OF_PERICENTER":85.8304,"MEAN_ANOMALY":274.3064,"EPHEMERIS_TYPE":0,"CLASSIFICATION_TYPE":"U","NORAD_CAT_ID":47292,"ELEMENT_SET_NO":999,"REV_AT_EPOCH":22519,"BSTAR":-0.00029415,"MEAN_MOTION_DOT":-9.3e-7,"MEAN_MOTION_DDOT":0},{"OBJECT_NAME":"ONEWEB-0147","OBJECT_ID":"2020-100AM","EPOCH":"2025-08-20T05:45:07.547616","MEAN_MOTION":13.12443008,"ECCENTRICITY":0.0001567,"INCLINATION":87.8865,"RA_OF_ASC_NODE":50.4445,"ARG_OF_PERICENTER":82.3186,"MEAN_ANOMALY":277.8121,"EPHEMERIS_TYPE":0,"CLASSIFICATION_TYPE":"U","NORAD_CAT_ID":47293,"ELEMENT_SET_NO":999,"REV_AT_EPOCH":22509,"BSTAR":0.00033543,"MEAN_MOTION_DOT":1.33e-6,"MEAN_MOTION_DDOT":0},{"OBJECT_NAME":"ONEWEB-0115","OBJECT_ID":"2021-025A","EPOCH":"2025-08-19T21:26:24.267552","MEAN_MOTION":13.13470035,"ECCENTRICITY":0.000181,"INCLINATION":87.8996,"RA_OF_ASC_NODE":20.0625,"ARG_OF_PERICENTER":94.7527,"MEAN_ANOMALY":265.3809,"EPHEMERIS_TYPE":0,"CLASSIFICATION_TYPE":"U","NORAD_CAT_ID":48042,"ELEMENT_SET_NO":999,"REV_AT_EPOCH":21404,"BSTAR":-0.00084424,"MEAN_MOTION_DOT":-2.96e-6,"MEAN_MOTION_DDOT":0},{"OBJECT_NAME":"ONEWEB-0152","OBJECT_ID":"2021-025B","EPOCH":"2025-08-19T21:45:53.266464","MEAN_MOTION":13.13470971,"ECCENTRICITY":0.0001834,"INCLINATION":87.8993,"RA_OF_ASC_NODE":20.0746,"ARG_OF_PERICENTER":92.4987,"MEAN_ANOMALY":267.6352,"EPHEMERIS_TYPE":0,"CLASSIFICATION_TYPE":"U","NORAD_CAT_ID":48043,"ELEMENT_SET_NO":999,"REV_AT_EPOCH":21400,"BSTAR":-0.00090484,"MEAN_MOTION_DOT":-3.18e-6,"MEAN_MOTION_DDOT":0},{"OBJECT_NAME":"ONEWEB-0153","OBJECT_ID":"2021-025C","EPOCH":"2025-08-19T21:14:12.295392","MEAN_MOTION":13.13470492,"ECCENTRICITY":0.0001742,"INCLINATION":87.8998,"RA_OF_ASC_NODE":20.0773,"ARG_OF_PERICENTER":97.5786,"MEAN_ANOMALY":262.5541,"EPHEMERIS_TYPE":0,"CLASSIFICATION_TYPE":"U","NORAD_CAT_ID":48044,"ELEMENT_SET_NO":999,"REV_AT_EPOCH":21399,"BSTAR":-0.00028281,"MEAN_MOTION_DOT":-9.1e-7,"MEAN_MOTION_DDOT":0},{"OBJECT_NAME":"ONEWEB-0154","OBJECT_ID":"2021-025D","EPOCH":"2025-08-19T21:09:19.693152","MEAN_MOTION":13.13469727,"ECCENTRICITY":0.0001726,"INCLINATION":87.8995,"RA_OF_ASC_NODE":20.0762,"ARG_OF_PERICENTER":93.6255,"MEAN_ANOMALY":266.5072,"EPHEMERIS_TYPE":0,"CLASSIFICATION_TYPE":"U","NORAD_CAT_ID":48045,"ELEMENT_SET_NO":999,"REV_AT_EPOCH":21395,"BSTAR":8.8591e-5,"MEAN_MOTION_DOT":4.5e-7,"MEAN_MOTION_DDOT":0},{"OBJECT_NAME":"ONEWEB-0116","OBJECT_ID":"2021-025E","EPOCH":"2025-08-20T03:34:29.473536","MEAN_MOTION":13.13469367,"ECCENTRICITY":0.0001881,"INCLINATION":87.8997,"RA_OF_ASC_NODE":20.0047,"ARG_OF_PERICENTER":92.3469,"MEAN_ANOMALY":267.7875,"EPHEMERIS_TYPE":0,"CLASSIFICATION_TYPE":"U","NORAD_CAT_ID":48046,"ELEMENT_SET_NO":999,"REV_AT_EPOCH":21413,"BSTAR":-0.00035096,"MEAN_MOTION_DOT":-1.15e-6,"MEAN_MOTION_DDOT":0},{"OBJECT_NAME":"ONEWEB-0150","OBJECT_ID":"2021-025F","EPOCH":"2025-08-19T21:31:15.444192","MEAN_MOTION":13.13470903,"ECCENTRICITY":0.0001833,"INCLINATION":87.8997,"RA_OF_ASC_NODE":20.0497,"ARG_OF_PERICENTER":101.1148,"MEAN_ANOMALY":259.0187,"EPHEMERIS_TYPE":0,"CLASSIFICATION_TYPE":"U","NORAD_CAT_ID":48047,"ELEMENT_SET_NO":999,"REV_AT_EPOCH":21399,"BSTAR":-0.00077477,"MEAN_MOTION_DOT":-2.7e-6,"MEAN_MOTION_DDOT":0},{"OBJECT_NAME":"ONEWEB-0107","OBJECT_ID":"2021-025G","EPOCH":"2025-08-19T21:33:41.630400","MEAN_MOTION":13.13470294,"ECCENTRICITY":0.0001503,"INCLINATION":87.8996,"RA_OF_ASC_NODE":20.0476,"ARG_OF_PERICENTER":101.7767,"MEAN_ANOMALY":258.353,"EPHEMERIS_TYPE":0,"CLASSIFICATION_TYPE":"U","NORAD_CAT_ID":48048,"ELEMENT_SET_NO":999,"REV_AT_EPOCH":21397,"BSTAR":-0.00081148,"MEAN_MOTION_DOT":-2.84e-6,"MEAN_MOTION_DDOT":0},{"OBJECT_NAME":"ONEWEB-0101","OBJECT_ID":"2021-025H","EPOCH":"2025-08-20T07:38:15.375264","MEAN_MOTION":13.13469368,"ECCENTRICITY":0.0001617,"INCLINATION":87.8993,"RA_OF_ASC_NODE":20.0039,"ARG_OF_PERICENTER":94.3058,"MEAN_ANOMALY":265.8256,"EPHEMERIS_TYPE":0,"CLASSIFICATION_TYPE":"U","NORAD_CAT_ID":48049,"ELEMENT_SET_NO":999,"REV_AT_EPOCH":21400,"BSTAR":0.00095341,"MEAN_MOTION_DOT":3.61e-6,"MEAN_MOTION_DDOT":0},{"OBJECT_NAME":"ONEWEB-0113","OBJECT_ID":"2021-025J","EPOCH":"2025-08-19T22:07:45.305760","MEAN_MOTION":13.13976708,"ECCENTRICITY":0.0001922,"INCLINATION":87.8994,"RA_OF_ASC_NODE":20.0274,"ARG_OF_PERICENTER":93.9116,"MEAN_ANOMALY":266.2234,"EPHEMERIS_TYPE":0,"CLASSIFICATION_TYPE":"U","NORAD_CAT_ID":48050,"ELEMENT_SET_NO":999,"REV_AT_EPOCH":21404,"BSTAR":2.0813e-5,"MEAN_MOTION_DOT":2.0e-7,"MEAN_MOTION_DDOT":0},{"OBJECT_NAME":"ONEWEB-0112","OBJECT_ID":"2021-025K","EPOCH":"2025-08-19T21:41:01.040928","MEAN_MOTION":13.13469542,"ECCENTRICITY":0.0001806,"INCLINATION":87.8995,"RA_OF_ASC_NODE":20.0435,"ARG_OF_PERICENTER":98.5571,"MEAN_ANOMALY":261.5762,"EPHEMERIS_TYPE":0,"CLASSIFICATION_TYPE":"U","NORAD_CAT_ID":48051,"ELEMENT_SET_NO":999,"REV_AT_EPOCH":21404,"BSTAR":-0.0011139,"MEAN_MOTION_DOT":-3.94e-6,"MEAN_MOTION_DDOT":0},{"OBJECT_NAME":"ONEWEB-0156","OBJECT_ID":"2021-025L","EPOCH":"2025-08-19T21:53:11.861376","MEAN_MOTION":13.13471233,"ECCENTRICITY":0.000171,"INCLINATION":87.8993,"RA_OF_ASC_NODE":20.0538,"ARG_OF_PERICENTER":100.2884,"MEAN_ANOMALY":259.8438,"EPHEMERIS_TYPE":0,"CLASSIFICATION_TYPE":"U","NORAD_CAT_ID":48052,"ELEMENT_SET_NO":999,"REV_AT_EPOCH":21402,"BSTAR":-0.00067204,"MEAN_MOTION_DOT":-2.33e-6,"MEAN_MOTION_DDOT":0}]
