ONEWEB-0142             
1 47288U 20100AG  25231.94296438  .00000416  00000+0  11202-2 0  9998
2 47288  87.8867  50.5346 0001544 102.1599 257.9702 13.12444762225150
ONEWEB-0143             
1 47289U 20100AH  25232.25750897  .00000407  00000+0  10972-2 0  9991
2 47289  87.8866  50.4692 0001766  89.6697 270.4634 13.12443092225178
ONEWEB-0144             
1 47290U 20100AJ  25232.22992881 -.00000212  00000+0 -62335-3 0  9998
2 47290  87.8857  50.4523 0001483  94.4711 265.6587 13.12443966225094
ONEWEB-0145             
1 47291U 20100AK  25232.20073181 -.00000049  00000+0 -17021-3 0  9990
2 47291  87.8866  50.4871 0001640  90.4377 269.6940 13.12440661225287
ONEWEB-0146             
1 47292U 20100AL  25232.19749060 -.00000093  00000+0 -29415-3 0  9994
2 47292  87.8866  50.4746 0002096  85.8304 274.3064 13.12440146225191
ONEWEB-0147             
1 47293U 20100AM  25232.23967069  .00000133  00000+0  33543-3 0  9991
2 47293  87.8865  50.4445 0001567  82.3186 277.8121 13.12443008225090
ONEWEB-0115             
1 48042U 21025A   25231.89333643 -.00000296  00000+0 -84424-3 0  9993
2 48042  87.8996  20.0625 0001810  94.7527 265.3809 13.13470035214047
ONEWEB-0152             
1 48043U 21025B   25231.90686651 -.00000318  00000+0 -90484-3 0  9994
2 48043  87.8993  20.0746 0001834  92.4987 267.6352 13.13470971214003
ONEWEB-0153             
1 48044U 21025C   25231.88486453 -.00000091  00000+0 -28281-3 0  9994
2 48044  87.8998  20.0773 0001742  97.5786 262.5541 13.13470492213999
ONEWEB-0154             
1 48045U 21025D   25231.88147793  .00000045  00000+0  88591-4 0  9994
2 48045  87.8995  20.0762 0001726  93.6255 266.5072 13.13469727213953
ONEWEB-0116             
1 48046U 21025E   25232.14895224 -.00000115  00000+0 -35096-3 0  9995
2 48046  87.8997  20.0047 0001881  92.3469 267.7875 13.13469367214132
ONEWEB-0150             
1 48047U 21025F   25231.89670653 -.00000270  00000+0 -77477-3 0  9995
2 48047  87.8997  20.0497 0001833 101.1148 259.0187 13.13470903213993
ONEWEB-0107             
1 48048U 21025G   25231.89839850 -.00000284  00000+0 -81148-3 0  9997
2 48048  87.8996  20.0476 0001503 101.7767 258.3530 13.13470294213972
ONEWEB-0101             
1 48049U 21025H   25232.31823351  .00000361  00000+0  95341-3 0  9999
2 48049  87.8993  20.0039 0001617  94.3058 265.8256 13.13469368214004
ONEWEB-0113             
1 48050U 21025J   25231.92205215  .00000020  00000+0  20813-4 0  9995
2 48050  87.8994  20.0274 0001922  93.9116 266.2234 13.13976708214043
ONEWEB-0112             
1 48051U 21025K   25231.90348427 -.00000394  00000+0 -11139-2 0  9992
2 48051  87.8995  20.0435 0001806  98.5571 261.5762 13.13469542214048
ONEWEB-0156             
1 48052U 21025L   25231.91194284 -.00000233  00000+0 -67204-3 0  9991
2 48052  87.8993  20.0538 0001710 100.2884 259.8438 13.13471233214021
